STARLINK-1047           
1 44752U 19074AR  22258.97921403  .00002255  00000+0  17026-3 0  9999
2 44752  53.0558 151.0725 0001570  68.9636 291.1521 15.06398409156943